NORAD_CAT_ID,OBJECT_NAME,OBJECT_TYPE,EPOCH,MEAN_MOTION,ECCENTRICITY,INCLINATION,RA_OF_ASC_NODE,ARG_OF_PERICENTER,MEAN_ANOMALY,BSTAR,MEAN_MOTION_DOT,MEAN_MOTION_DDOT,TLE_LINE0,TLE_LINE1,TLE_LINE2,SEMIMAJOR_AXIS,PERIOD,APOGEE,PERIGEE,DECAYED
53607.0,STARLINK-4591,PAYLOAD,2024-01-05 12:47:34,15.08835456,0.0001262,53.2158,204.2813,82.5815,277.5321,8.8318e-05,1.118e-05,0.0,0 STARLINK-4591,1 53607U 22104V   24005.53303945  .00001118  00000-0  88318-4 0  9996,2 53607  53.2158 204.2813 0001262  82.5815 277.5321 15.08835456 75797,6917.894,95.438,540.632,538.886,0.0
53607.0,STARLINK-4591,PAYLOAD,2024-01-05 22:19:53,15.08838114,0.0001303,53.2158,202.4967,86.5038,273.6103,0.0001101,1.465e-05,0.0,0 STARLINK-4591,1 53607U 22104V   24005.93047860  .00001465  00000-0  11010-3 0  9990,2 53607  53.2158 202.4967 0001303  86.5038 273.6103 15.08838114 75850,6917.886,95.438,540.653,538.85,0.0
53607.0,STARLINK-4591,PAYLOAD,2024-01-06 22:10:39,15.08845845,0.0001374,53.2157,198.0361,83.4329,276.682,0.00010803,1.432e-05,0.0,0 STARLINK-4591,1 53607U 22104V   24006.92407366  .00001432  00000-0  10803-3 0  9994,2 53607  53.2157 198.0361 0001374  83.4329 276.6820 15.08845845 76000,6917.863,95.437,540.678,538.777,0.0
53607.0,STARLINK-4591,PAYLOAD,2024-01-07 18:50:40,15.08844768,0.0001346,53.2157,194.1698,90.1317,269.983,7.8578e-05,9.63e-06,0.0,0 STARLINK-4591,1 53607U 22104V   24007.78519356  .00000963  00000-0  78578-4 0  9994,2 53607  53.2157 194.1698 0001346  90.1317 269.9830 15.08844768 75447,6917.866,95.437,540.662,538.8,0.0
53607.0,STARLINK-4591,PAYLOAD,2024-01-07 22:01:26,15.08845084,0.0001344,53.2157,193.5749,90.6733,269.4413,7.7301e-05,9.43e-06,0.0,0 STARLINK-4591,1 53607U 22104V   24007.91767267  .00000943  00000-0  77301-4 0  9996,2 53607  53.2157 193.5749 0001344  90.6733 269.4413 15.08845084 76155,6917.865,95.437,540.66,538.8,0.0
53607.0,STARLINK-4591,PAYLOAD,2024-01-08 12:19:55,15.0884181,0.0001386,53.2162,190.8968,94.5755,265.5395,1.0461e-05,-1.21e-06,0.0,0 STARLINK-4591,1 53607U 22104V   24008.51383537 -.00000121  00000-0  10461-4 0  9990,2 53607  53.2162 190.8968 0001386  94.5755 265.5395 15.08841810 76246,6917.875,95.437,540.699,538.781,0.0
53607.0,STARLINK-4591,PAYLOAD,2024-01-08 18:41:27,15.08847662,0.0001353,53.2161,189.708,97.3655,262.7491,5.4738e-05,5.84e-06,0.0,0 STARLINK-4591,1 53607U 22104V   24008.77878919  .00000584  00000-0  54738-4 0  9998,2 53607  53.2161 189.7080 0001353  97.3655 262.7491 15.08847662 76282,6917.857,95.437,540.658,538.786,0.0
53607.0,STARLINK-4591,PAYLOAD,2024-01-09 12:10:42,15.0883953,0.0001402,53.2168,186.4414,106.3879,253.7267,-6.1352e-06,-3.86e-06,0.0,0 STARLINK-4591,1 53607U 22104V   24009.50743555 -.00000386  00000-0 -61352-5 0  9990,2 53607  53.2168 186.4414 0001402 106.3879 253.7267 15.08839530 75700,6917.882,95.438,540.717,538.777,0.0
53607.0,STARLINK-4591,PAYLOAD,2024-01-09 16:56:52,15.08837562,0.0001222,53.2157,185.5461,97.1585,262.9546,-3.0407e-05,-7.72e-06,0.0,0 STARLINK-4591,1 53607U 22104V   24009.70615757 -.00000772  00000-0 -30407-4 0  9999,2 53607  53.2157 185.5461 0001222  97.1585 262.9546 15.08837562 76426,6917.888,95.438,540.598,538.907,0.0
53607.0,STARLINK-4591,PAYLOAD,2024-01-10 16:47:38,15.08841651,0.0001202,53.216,181.0852,87.1206,272.9923,1.2063e-05,-9.6e-07,0.0,0 STARLINK-4591,1 53607U 22104V   24010.69975595 -.00000096  00000-0  12063-4 0  9994,2 53607  53.2160 181.0852 0001202  87.1206 272.9923 15.08841651 75885,6917.875,95.437,540.572,538.909,0.0
53607.0,STARLINK-4591,PAYLOAD,2024-01-11 15:03:03,15.08835497,0.0001218,53.2167,176.9219,74.4446,285.6681,7.2673e-05,8.69e-06,0.0,0 STARLINK-4591,1 53607U 22104V   24011.62712080  .00000869  00000-0  72673-4 0  9996,2 53607  53.2167 176.9219 0001218  74.4446 285.6681 15.08835497 76710,6917.894,95.438,540.602,538.917,0.0
53607.0,STARLINK-4591,PAYLOAD,2024-01-11 19:49:12,15.08840582,0.0001235,53.2165,176.0287,89.8546,270.2587,0.00011336,1.517e-05,0.0,0 STARLINK-4591,1 53607U 22104V   24011.82583641  .00001517  00000-0  11336-3 0  9996,2 53607  53.2165 176.0287 0001235  89.8546 270.2587 15.08840582 76057,6917.879,95.438,540.598,538.889,0.0
53607.0,STARLINK-4591,PAYLOAD,2024-01-12 13:18:27,15.08834876,0.0001326,53.2158,172.7595,89.9076,270.2068,6.8256e-05,7.98e-06,0.0,0 STARLINK-4591,1 53607U 22104V   24012.55448357  .00000798  00000-0  68256-4 0  9995,2 53607  53.2158 172.7595 0001326  89.9076 270.2068 15.08834876 76855,6917.896,95.438,540.678,538.844,0.0
53607.0,STARLINK-4591,PAYLOAD,2024-01-12 19:39:59,15.08844117,0.0001237,53.2159,171.5697,97.1578,262.9554,7.3069e-05,8.75e-06,0.0,0 STARLINK-4591,1 53607U 22104V   24012.81943745  .00000875  00000-0  73069-4 0  9999,2 53607  53.2159 171.5697 0001237  97.1578 262.9554 15.08844117 76896,6917.868,95.437,540.589,538.877,0.0
53607.0,STARLINK-4591,PAYLOAD,2024-01-13 09:58:28,15.08840837,0.0001231,53.2159,168.8948,80.8732,279.2399,3.3054e-05,2.38e-06,0.0,0 STARLINK-4591,1 53607U 22104V   24013.41560292  .00000238  00000-0  33054-4 0  9991,2 53607  53.2159 168.8948 0001231  80.8732 279.2399 15.08840837 76296,6917.878,95.438,540.594,538.891,0.0
53607.0,STARLINK-4591,PAYLOAD,2024-01-13 14:44:37,15.08841547,0.000121,53.2158,168.0022,90.1449,269.9681,4.2701e-05,3.92e-06,0.0,0 STARLINK-4591,1 53607U 22104V   24013.61432208  .00000392  00000-0  42701-4 0  9998,2 53607  53.2158 168.0022 0001210  90.1449 269.9681 15.08841547 77016,6917.876,95.437,540.578,538.904,0.0
53607.0,STARLINK-4591,PAYLOAD,2024-01-14 14:35:24,15.08842443,0.0001212,53.2158,163.5409,96.7976,263.3154,6.8377e-05,8.01e-06,0.0,0 STARLINK-4591,1 53607U 22104V   24014.60792074  .00000801  00000-0  68377-4 0  9990,2 53607  53.2158 163.5409 0001212  96.7976 263.3154 15.08842443 77169,6917.873,95.437,540.576,538.899,0.0
53607.0,STARLINK-4591,PAYLOAD,2024-01-14 19:21:33,15.08850567,0.000125,53.2158,162.6482,99.7881,260.3252,0.00012397,1.686e-05,0.0,0 STARLINK-4591,1 53607U 22104V   24014.80663392  .00001686  00000-0  12397-3 0  9994,2 53607  53.2158 162.6482 0001250  99.7881 260.3252 15.08850567 76509,6917.848,95.437,540.578,538.848,0.0
53607.0,STARLINK-4591,PAYLOAD,2024-01-15 09:40:01,15.08853452,0.0001574,53.2177,159.9675,133.3787,226.7336,-8.9929e-05,-1.72e-05,0.0,0 STARLINK-4591,1 53607U 22104V   24015.40279729 -.00001720  00000-0 -89929-4 0  9995,2 53607  53.2177 159.9675 0001574 133.3787 226.7336 15.08853452 76596,6917.839,95.437,540.793,538.615,0.0
53607.0,STARLINK-4591,PAYLOAD,2024-01-15 14:26:10,15.08848339,0.0001363,53.2157,159.0791,108.9839,251.1301,8.5502e-05,1.073e-05,0.0,0 STARLINK-4591,1 53607U 22104V   24015.60151419  .00001073  00000-0  85502-4 0  9994,2 53607  53.2157 159.0791 0001363 108.9839 251.1301 15.08848339 77319,6917.855,95.437,540.663,538.777,0.0
53607.0,STARLINK-4591,PAYLOAD,2024-01-15 16:01:34,15.0884764,0.0001357,53.2159,158.784,77.7615,282.3529,9.8867e-05,1.286e-05,0.0,0 STARLINK-4591,1 53607U 22104V   24015.66775687  .00001286  00000-0  98867-4 0  9993,2 53607  53.2159 158.7840 0001357  77.7615 282.3529 15.08847640 77323,6917.857,95.437,540.661,538.783,0.0
53607.0,STARLINK-4591,PAYLOAD,2024-01-16 12:41:35,15.08840304,0.0001508,53.2172,154.9145,110.3408,249.7746,-4.1109e-06,-3.53e-06,0.0,0 STARLINK-4591,1 53607U 22104V   24016.52888336 -.00000353  00000-0 -41109-5 0  9999,2 53607  53.2172 154.9145 0001508 110.3408 249.7746 15.08840304 76761,6917.879,95.438,540.788,538.701,0.0
53607.0,STARLINK-4591,PAYLOAD,2024-01-16 15:52:21,15.08840511,0.000173,53.2179,154.3192,126.6819,233.4332,4.119e-05,3.68e-06,0.0,0 STARLINK-4591,1 53607U 22104V   24016.66136099  .00000368  00000-0  41190-4 0  9999,2 53607  53.2179 154.3192 0001730 126.6819 233.4332 15.08840511 77477,6917.879,95.438,540.941,538.547,0.0
53607.0,STARLINK-4591,PAYLOAD,2024-01-17 14:07:45,15.08839876,0.0001322,53.2168,150.1608,90.0654,270.049,1.606e-05,-3.2e-07,0.0,0 STARLINK-4591,1 53607U 22104V   24017.58872653 -.00000032  00000-0  16060-4 0  9991,2 53607  53.2168 150.1608 0001322  90.0654 270.0490 15.08839876 77619,6917.881,95.438,540.66,538.831,0.0
53607.0,STARLINK-4591,PAYLOAD,2024-01-18 13:58:33,15.08837299,0.0001183,53.2163,145.7012,81.9166,278.1961,0.00013929,1.929e-05,0.0,0 STARLINK-4591,1 53607U 22104V   24018.58232889  .00001929  00000-0  13929-3 0  9998,2 53607  53.2163 145.7012 0001183  81.9166 278.1961 15.08837299 77760,6917.889,95.438,540.572,538.935,0.0
53607.0,STARLINK-4591,PAYLOAD,2024-01-18 15:33:56,15.08841872,0.0001357,53.2167,145.4018,98.2245,261.8901,0.00015527,2.184e-05,0.0,0 STARLINK-4591,1 53607U 22104V   24018.64856541  .00002184  00000-0  15527-3 0  9992,2 53607  53.2167 145.4018 0001357  98.2245 261.8901 15.08841872 77089,6917.875,95.437,540.678,538.801,0.0
53607.0,STARLINK-4591,PAYLOAD,2024-01-19 12:13:57,15.08838833,0.0001274,53.2163,141.5368,84.9696,275.1442,8.9673e-05,1.14e-05,0.0,0 STARLINK-4591,1 53607U 22104V   24019.50969077  .00001140  00000-0  89673-4 0  9992,2 53607  53.2163 141.5368 0001274  84.9696 275.1442 15.08838833 77216,6917.884,95.438,540.63,538.868,0.0
53607.0,STARLINK-4591,PAYLOAD,2024-01-19 13:49:20,15.08841865,0.0001277,53.2165,141.2387,80.3334,279.7802,7.9797e-05,9.82e-06,0.0,0 STARLINK-4591,1 53607U 22104V   24019.57592886  .00000982  00000-0  79797-4 0  9998,2 53607  53.2165 141.2387 0001277  80.3334 279.7802 15.08841865 77914,6917.875,95.437,540.623,538.856,0.0
53607.0,STARLINK-4591,PAYLOAD,2024-01-19 17:00:06,15.0884529,0.0001351,53.2169,140.643,87.9836,272.1311,0.00014553,2.029e-05,0.0,0 STARLINK-4591,1 53607U 22104V   24019.70840505  .00002029  00000-0  14553-3 0  9999,2 53607  53.2169 140.6430 0001351  87.9836 272.1311 15.08845290 77247,6917.864,95.437,540.664,538.795,0.0
53607.0,STARLINK-4591,PAYLOAD,2024-01-20 12:04:44,15.08838115,0.000131,53.2175,137.0729,114.5568,245.5561,-1.9374e-05,-5.96e-06,0.0,0 STARLINK-4591,1 53607U 22104V   24020.50329459 -.00000596  00000-0 -19374-4 0  9995,2 53607  53.2175 137.0729 0001310 114.5568 245.5561 15.08838115 77361,6917.886,95.438,540.657,538.845,0.0
